NORAD_CAT_ID,OBJECT_NAME,OBJECT_TYPE,EPOCH,MEAN_MOTION,ECCENTRICITY,INCLINATION,RA_OF_ASC_NODE,ARG_OF_PERICENTER,MEAN_ANOMALY,BSTAR,MEAN_MOTION_DOT,MEAN_MOTION_DDOT,TLE_LINE0,TLE_LINE1,TLE_LINE2,SEMIMAJOR_AXIS,PERIOD,APOGEE,PERIGEE,DECAYED
53616.0,STARLINK-4605,PAYLOAD,2023-09-10 14:00:01,15.10517016,0.0001463,53.2179,354.1839,75.4535,53.2948,-0.0052071,-0.00086042,0.0,0 STARLINK-4605,1 53616U 22104AE  23253.58334491 -.00086042  00000-0 -52071-2 0  9991,2 53616  53.2179 354.1839 0001463  75.4535  53.2948 15.10517016  5863,6912.759,95.332,535.636,533.613,0.0
53616.0,STARLINK-4605,PAYLOAD,2023-09-10 22:00:00,15.1046499,0.0001355,53.218,352.6832,79.0696,63.2519,-0.00058341,-9.988e-05,0.0,0 STARLINK-4605,1 53616U 22104AE  23253.91667824 -.00009988  00000-0 -58341-3 0  9998,2 53616  53.2180 352.6832 0001355  79.0696  63.2519 15.10464990 57706,6912.918,95.335,535.72,533.846,0.0
53616.0,STARLINK-4605,PAYLOAD,2023-09-11 10:04:38,15.10476775,0.0001371,53.2199,350.4197,80.0337,280.0811,1.448e-05,-5.2e-07,0.0,0 STARLINK-4605,1 53616U 22104AE  23254.41989200 -.00000052  00000-0  14480-4 0  9998,2 53616  53.2199 350.4197 0001371  80.0337 280.0811 15.10476775 57784,6912.882,95.334,535.695,533.799,0.0
53616.0,STARLINK-4605,PAYLOAD,2023-09-11 13:15:12,15.10480191,0.0001344,53.2198,349.8238,79.2805,280.8339,1.9764e-05,3.6e-07,0.0,0 STARLINK-4605,1 53616U 22104AE  23254.55222585  .00000036  00000-0  19764-4 0  9990,2 53616  53.2198 349.8238 0001344  79.2805 280.8339 15.10480191 58489,6912.872,95.334,535.666,533.807,0.0
53616.0,STARLINK-4605,PAYLOAD,2023-09-12 13:04:25,15.10490819,0.0001398,53.2196,345.3573,88.4182,271.6971,0.00013441,1.946e-05,0.0,0 STARLINK-4605,1 53616U 22104AE  23255.54473785  .00001946  00000-0  13441-3 0  9996,2 53616  53.2196 345.3573 0001398  88.4182 271.6971 15.10490819 58634,6912.839,95.333,535.671,533.738,0.0
53616.0,STARLINK-4605,PAYLOAD,2023-09-12 22:36:07,15.10481354,0.0001495,53.2196,343.5706,101.3057,258.8104,0.00011077,1.552e-05,0.0,0 STARLINK-4605,1 53616U 22104AE  23255.94175192  .00001552  00000-0  11077-3 0  9997,2 53616  53.2196 343.5706 0001495 101.3057 258.8104 15.10481354 58017,6912.868,95.334,535.766,533.699,0.0
53616.0,STARLINK-4605,PAYLOAD,2023-09-13 11:18:22,15.10487325,0.0001522,53.2195,341.19,100.034,260.0824,0.00017133,2.561e-05,0.0,0 STARLINK-4605,1 53616U 22104AE  23256.47109285  .00002561  00000-0  17133-3 0  9996,2 53616  53.2195 341.1900 0001522 100.0340 260.0824 15.10487325 58779,6912.85,95.333,535.767,533.663,0.0
53616.0,STARLINK-4605,PAYLOAD,2023-09-14 09:32:21,15.10449931,0.0001479,53.2191,337.0189,88.4745,271.6417,-0.0004358,-7.535e-05,0.0,0 STARLINK-4605,1 53616U 22104AE  23257.39746829 -.00007535  00000-0 -43580-3 0  9992,2 53616  53.2191 337.0189 0001479  88.4745 271.6417 15.10449931 58235,6912.964,95.336,535.851,533.806,0.0
53616.0,STARLINK-4605,PAYLOAD,2023-09-14 12:42:55,15.10451901,0.0001483,53.2188,336.4234,85.8096,274.3066,-0.0003721,-6.477e-05,0.0,0 STARLINK-4605,1 53616U 22104AE  23257.52980577 -.00006477  00000-0 -37210-3 0  9994,2 53616  53.2188 336.4234 0001483  85.8096 274.3066 15.10451901 58937,6912.958,95.336,535.848,533.798,0.0
53616.0,STARLINK-4605,PAYLOAD,2023-09-15 04:35:45,15.10457257,0.0001492,53.2187,333.4462,83.38,276.7362,-4.4641e-05,-1.035e-05,0.0,0 STARLINK-4605,1 53616U 22104AE  23258.19149475 -.00001035  00000-0 -44641-4 0  9994,2 53616  53.2187 333.4462 0001492  83.3800 276.7362 15.10457257 58353,6912.941,95.335,535.838,533.775,0.0
53616.0,STARLINK-4605,PAYLOAD,2023-09-15 10:56:52,15.10470636,0.000139,53.2172,332.2543,73.6385,286.4761,0.00052914,8.526e-05,0.0,0 STARLINK-4605,1 53616U 22104AE  23258.45616559  .00008526  00000-0  52914-3 0  9996,2 53616  53.2172 332.2543 0001390  73.6385 286.4761 15.10470636 58392,6912.901,95.335,535.727,533.805,0.0
53616.0,STARLINK-4605,PAYLOAD,2023-09-15 12:32:09,15.1047205,0.0001388,53.2173,331.9566,70.9284,289.1859,0.0010247,0.00016805,0.0,0 STARLINK-4605,1 53616U 22104AE  23258.52233740  .00016805  00000-0  10247-2 0  9992,2 53616  53.2173 331.9566 0001388  70.9284 289.1859 15.10472050 59086,6912.896,95.334,535.721,533.802,0.0
53616.0,STARLINK-4605,PAYLOAD,2023-09-15 22:03:51,15.10498204,0.0001386,53.2169,330.1699,70.7306,289.3836,0.0012332,0.00020308,0.0,0 STARLINK-4605,1 53616U 22104AE  23258.91934139  .00020308  00000-0  12332-2 0  9995,2 53616  53.2169 330.1699 0001386  70.7306 289.3836 15.10498204 58467,6912.817,95.333,535.64,533.723,0.0
53616.0,STARLINK-4605,PAYLOAD,2023-09-16 12:21:25,15.10373125,0.0002396,53.2162,327.4904,46.782,313.3372,-0.0036991,-0.00061181,0.0,0 STARLINK-4605,1 53616U 22104AE  23259.51487760 -.00061181  00000-0 -36991-2 0  9998,2 53616  53.2162 327.4904 0002396  46.7820 313.3372 15.10373125 59237,6913.198,95.341,536.72,533.407,0.0
53616.0,STARLINK-4605,PAYLOAD,2023-09-16 21:53:16,15.10040844,0.0001928,53.2166,325.7043,76.5854,283.5353,-0.0088616,-0.0014318,0.0,0 STARLINK-4605,1 53616U 22104AE  23259.91199943 -.00143180  00000-0 -88616-2 0  9996,2 53616  53.2166 325.7043 0001928  76.5854 283.5353 15.10040844 58611,6914.212,95.362,537.41,534.744,0.0
53616.0,STARLINK-4605,PAYLOAD,2023-09-17 09:00:36,15.09653729,0.0001154,53.2175,323.6214,55.9951,304.1151,-0.0065896,-0.00105957,0.0,0 STARLINK-4605,1 53616U 22104AE  23260.37542711 -.00105957  00000-0 -65896-2 0  9998,2 53616  53.2175 323.6214 0001154  55.9951 304.1151 15.09653729 58681,6915.394,95.386,538.057,536.461,0.0
53616.0,STARLINK-4605,PAYLOAD,2023-09-17 22:00:00,15.08841332,0.0001204,53.2163,321.1897,73.8665,348.4531,-0.0010959,-0.00017687,0.0,0 STARLINK-4605,1 53616U 22104AE  23260.91667824 -.00017687  00000-0 -10959-2 0  9993,2 53616  53.2163 321.1897 0001204  73.8665 348.4531 15.08841332 58765,6917.876,95.437,540.574,538.908,0.0
53616.0,STARLINK-4605,PAYLOAD,2023-09-18 14:00:01,15.0881582,0.0001283,53.2164,318.1985,70.7153,14.7978,0.0015456,0.00024379,0.0,0 STARLINK-4605,1 53616U 22104AE  23261.58334491  .00024379  00000-0  15456-2 0  9999,2 53616  53.2164 318.1985 0001283  70.7153  14.7978 15.08815820 58867,6917.954,95.439,540.707,538.932,0.0
53616.0,STARLINK-4605,PAYLOAD,2023-09-18 22:00:00,15.08830131,0.0001205,53.2166,316.7003,79.5352,17.5651,0.0013568,0.00021366,0.0,0 STARLINK-4605,1 53616U 22104AE  23261.91667824  .00021366  00000-0  13568-2 0  9990,2 53616  53.2166 316.7003 0001205  79.5352  17.5651 15.08830131  5768,6917.911,95.438,540.609,538.942,0.0
53616.0,STARLINK-4605,PAYLOAD,2023-09-19 22:00:00,15.08779891,0.0001234,53.2167,312.2107,99.113,32.8097,0.0023657,0.00037501,0.0,0 STARLINK-4605,1 53616U 22104AE  23262.91667824  .00037501  00000-0  23657-2 0  9999,2 53616  53.2167 312.2107 0001234  99.1130  32.8097 15.08779891 59060,6918.064,95.441,540.783,539.075,0.0
53616.0,STARLINK-4605,PAYLOAD,2023-09-20 14:00:01,15.08779042,0.0001234,53.2167,309.2195,92.1503,62.8704,0.0041676,0.00066555,0.0,0 STARLINK-4605,1 53616U 22104AE  23263.58334491  .00066555  00000-0  41676-2 0  9996,2 53616  53.2167 309.2195 0001234  92.1503  62.8704 15.08779042 59167,6918.067,95.441,540.785,539.078,0.0
53616.0,STARLINK-4605,PAYLOAD,2023-09-20 22:00:00,15.08801696,0.0001217,53.2167,307.7215,103.8315,62.7406,0.0020744,0.00032846,0.0,0 STARLINK-4605,1 53616U 22104AE  23263.91667824  .00032846  00000-0  20744-2 0  9991,2 53616  53.2167 307.7215 0001217 103.8315  62.7406 15.08801696  5817,6917.997,95.44,540.704,539.021,0.0
53616.0,STARLINK-4605,PAYLOAD,2023-09-21 02:02:04,15.08814111,0.0001223,53.2171,306.9667,94.7355,265.3777,-0.0002638,-4.481e-05,0.0,0 STARLINK-4605,1 53616U 22104AE  23264.08477168 -.00004481  00000-0 -26380-3 0  9999,2 53616  53.2171 306.9667 0001223  94.7355 265.3777 15.08814111 59247,6917.96,95.439,540.671,538.978,0.0
53616.0,STARLINK-4605,PAYLOAD,2023-09-21 08:23:36,15.08827308,0.0001294,53.2172,305.7783,95.0385,265.0754,-0.00011558,-2.126e-05,0.0,0 STARLINK-4605,1 53616U 22104AE  23264.34973105 -.00002126  00000-0 -11558-3 0  9995,2 53616  53.2172 305.7783 0001294  95.0385 265.0754 15.08827308 59287,6917.919,95.438,540.679,538.889,0.0
53616.0,STARLINK-4605,PAYLOAD,2023-09-21 13:09:46,15.08834616,0.0001224,53.2178,304.8858,94.8741,265.2391,-4.6912e-05,-1.034e-05,0.0,0 STARLINK-4605,1 53616U 22104AE  23264.54845170 -.00001034  00000-0 -46912-4 0  9997,2 53616  53.2178 304.8858 0001224  94.8741 265.2391 15.08834616 59999,6917.897,95.438,540.609,538.915,0.0
53616.0,STARLINK-4605,PAYLOAD,2023-09-21 19:31:18,15.08845011,0.0001261,53.2182,303.6969,103.0897,257.0236,-5.2702e-05,-1.127e-05,0.0,0 STARLINK-4605,1 53616U 22104AE  23264.81340504 -.00001127  00000-0 -52702-4 0  9995,2 53616  53.2182 303.6969 0001261 103.0897 257.0236 15.08845011 60035,6917.865,95.437,540.602,538.858,0.0
53616.0,STARLINK-4605,PAYLOAD,2023-09-22 01:52:51,15.08830067,0.0001196,53.2174,302.5072,97.5594,262.5534,0.00029131,4.35e-05,0.0,0 STARLINK-4605,1 53616U 22104AE  23265.07837045  .00004350  00000-0  29131-3 0  9993,2 53616  53.2174 302.5072 0001196  97.5594 262.5534 15.08830067 59391,6917.911,95.438,540.603,538.948,0.0
53616.0,STARLINK-4605,PAYLOAD,2023-09-22 09:49:46,15.08848656,0.0001245,53.2166,301.0205,96.5548,263.5586,0.00057242,8.836e-05,0.0,0 STARLINK-4605,1 53616U 22104AE  23265.40956915  .00008836  00000-0  57242-3 0  9995,2 53616  53.2166 301.0205 0001245  96.5548 263.5586 15.08848656 59444,6917.854,95.437,540.58,538.858,0.0
53616.0,STARLINK-4605,PAYLOAD,2023-09-23 11:15:56,15.08858904,0.0001231,53.2161,296.2619,95.301,264.8123,0.0002989,4.475e-05,0.0,0 STARLINK-4605,1 53616U 22104AE  23266.46940062  .00004475  00000-0  29890-3 0  9991,2 53616  53.2161 296.2619 0001231  95.3010 264.8123 15.08858904 59605,6917.823,95.436,540.539,538.836,0.0
53616.0,STARLINK-4605,PAYLOAD,2023-09-24 01:34:24,15.08848636,0.0001438,53.2152,293.5854,90.8093,269.3064,4.202e-05,3.81e-06,0.0,0 STARLINK-4605,1 53616U 22104AE  23267.06556138  .00000381  00000-0  42020-4 0  9998,2 53616  53.2152 293.5854 0001438  90.8093 269.3064 15.08848636 59690,6917.854,95.437,540.714,538.724,0.0
